NORAD_CAT_ID,OBJECT_NAME,OBJECT_TYPE,EPOCH,MEAN_MOTION,ECCENTRICITY,INCLINATION,RA_OF_ASC_NODE,ARG_OF_PERICENTER,MEAN_ANOMALY,BSTAR,MEAN_MOTION_DOT,MEAN_MOTION_DDOT,TLE_LINE0,TLE_LINE1,TLE_LINE2,SEMIMAJOR_AXIS,PERIOD,APOGEE,PERIGEE,DECAYED
56450.0,STARLINK-5970,PAYLOAD,2024-06-17 19:13:07,14.98329894,0.0002825,70.0008,292.6761,265.4965,94.5871,-2.5193e-05,-3.94e-06,0.0,0 STARLINK-5970,1 56450U 23064C   24169.80077681 -.00000394  00000-0 -25193-4 0  9996,2 56450  70.0008 292.6761 0002825 265.4965  94.5871 14.98329894 61259,6950.193,96.107,574.022,570.095,0.0
56450.0,STARLINK-5970,PAYLOAD,2024-06-18 14:26:43,14.98331311,0.0002986,70.0004,290.656,267.3,92.7817,5.9769e-05,6.2e-06,0.0,0 STARLINK-5970,1 56450U 23064C   24170.60189374  .00000620  00000-0  59769-4 0  9995,2 56450  70.0004 290.6560 0002986 267.3000  92.7817 14.98331311 61010,6950.189,96.107,574.129,569.979,0.0
56450.0,STARLINK-5970,PAYLOAD,2024-06-18 17:38:59,14.98329964,0.0002977,70.0001,290.3189,265.6438,94.4381,3.5046e-05,3.25e-06,0.0,0 STARLINK-5970,1 56450U 23064C   24170.73541515  .00000325  00000-0  35046-4 0  9992,2 56450  70.0001 290.3189 0002977 265.6438  94.4381 14.98329964 61035,6950.193,96.107,574.127,569.989,0.0
56450.0,STARLINK-5970,PAYLOAD,2024-06-19 01:39:40,14.98331447,0.0003186,69.9994,289.4752,265.8078,94.2717,-4.6374e-05,-6.46e-06,0.0,0 STARLINK-5970,1 56450U 23064C   24171.06921549 -.00000646  00000-0 -46374-4 0  9992,2 56450  69.9994 289.4752 0003186 265.8078  94.2717 14.98331447 61448,6950.188,96.107,574.268,569.839,0.0
56450.0,STARLINK-5970,PAYLOAD,2024-06-19 14:28:44,14.98326301,0.0003052,69.9997,288.1292,265.7015,94.3795,2.95e-05,2.59e-06,0.0,0 STARLINK-5970,1 56450U 23064C   24171.60329829  .00000259  00000-0  29500-4 0  9995,2 56450  69.9997 288.1292 0003052 265.7015  94.3795 14.98326301 61167,6950.204,96.107,574.191,569.948,0.0
56450.0,STARLINK-5970,PAYLOAD,2024-06-19 17:41:00,14.98327974,0.000303,69.9999,287.7928,266.1552,93.9261,5.3017e-05,5.4e-06,0.0,0 STARLINK-5970,1 56450U 23064C   24171.73681687  .00000540  00000-0  53017-4 0  9995,2 56450  69.9999 287.7928 0003030 266.1552  93.9261 14.98327974 61189,6950.199,96.107,574.17,569.958,0.0
56450.0,STARLINK-5970,PAYLOAD,2024-06-20 14:30:45,14.9833293,0.0003123,69.9997,285.6056,269.2459,90.8342,9.031e-06,1.5e-07,0.0,0 STARLINK-5970,1 56450U 23064C   24172.60469556  .00000015  00000-0  90310-5 0  9996,2 56450  69.9997 285.6056 0003123 269.2459  90.8342 14.98332930 61318,6950.184,96.107,574.219,569.878,0.0
56450.0,STARLINK-5970,PAYLOAD,2024-06-20 17:43:01,14.98334679,0.0003025,70.0001,285.2698,267.9629,92.1184,3.8197e-05,3.63e-06,0.0,0 STARLINK-5970,1 56450U 23064C   24172.73821333  .00000363  00000-0  38197-4 0  9995,2 56450  70.0001 285.2698 0003025 267.9629  92.1184 14.98334679 61692,6950.178,96.107,574.146,569.941,0.0
56450.0,STARLINK-5970,PAYLOAD,2024-06-21 14:32:46,14.98330074,0.0002955,70.0003,283.0812,268.8784,91.2036,3.4621e-05,3.2e-06,0.0,0 STARLINK-5970,1 56450U 23064C   24173.60609570  .00000320  00000-0  34621-4 0  9990,2 56450  70.0003 283.0812 0002955 268.8784  91.2036 14.98330074 61467,6950.193,96.107,574.111,570.004,0.0
56450.0,STARLINK-5970,PAYLOAD,2024-06-21 17:45:05,14.98295555,0.0003177,70.0003,282.7447,274.8217,85.2579,-0.00035,-4.263e-05,0.0,0 STARLINK-5970,1 56450U 23064C   24173.73964656 -.00004263  00000-0 -35000-3 0  9996,2 56450  70.0003 282.7447 0003177 274.8217  85.2579 14.98295555 61843,6950.299,96.109,574.373,569.956,0.0
56450.0,STARLINK-5970,PAYLOAD,2024-06-22 12:58:41,14.98314731,0.0002941,70.0006,280.725,264.8577,95.2246,-0.00014259,-1.793e-05,0.0,0 STARLINK-5970,1 56450U 23064C   24174.54075800 -.00001793  00000-0 -14259-3 0  9998,2 56450  70.0006 280.7250 0002941 264.8577  95.2246 14.98314731 61965,6950.24,96.108,574.149,570.061,0.0
56450.0,STARLINK-5970,PAYLOAD,2024-06-22 14:34:49,14.98317157,0.0002784,70.0007,280.5566,262.8367,97.2475,-0.00011433,-1.456e-05,0.0,0 STARLINK-5970,1 56450U 23064C   24174.60751618 -.00001456  00000-0 -11433-3 0  9990,2 56450  70.0007 280.5566 0002784 262.8367  97.2475 14.98317157 61617,6950.233,96.108,574.033,570.163,0.0
56450.0,STARLINK-5970,PAYLOAD,2024-06-22 16:10:57,14.98316041,0.0002594,70.0015,280.3895,259.0071,101.0796,-9.1365e-05,-1.182e-05,0.0,0 STARLINK-5970,1 56450U 23064C   24174.67427752 -.00001182  00000-0 -91365-4 0  9995,2 56450  70.0015 280.3895 0002594 259.0071 101.0796 14.98316041 61620,6950.236,96.108,573.904,570.298,0.0
56450.0,STARLINK-5970,PAYLOAD,2024-06-23 13:00:41,14.98331037,0.0003063,70.0004,278.2,267.3975,92.6833,7.2162e-05,7.68e-06,0.0,0 STARLINK-5970,1 56450U 23064C   24175.54214539  .00000768  00000-0  72162-4 0  9990,2 56450  70.0004 278.2000 0003063 267.3975  92.6833 14.98331037 62113,6950.19,96.107,574.184,569.926,0.0
56450.0,STARLINK-5970,PAYLOAD,2024-06-23 14:36:49,14.98331584,0.0003044,70.0004,278.0318,267.3005,92.7806,8.0219e-05,8.64e-06,0.0,0 STARLINK-5970,1 56450U 23064C   24175.60890490  .00000864  00000-0  80219-4 0  9992,2 56450  70.0004 278.0318 0003044 267.3005  92.7806 14.98331584 61764,6950.188,96.107,574.169,569.937,0.0
56450.0,STARLINK-5970,PAYLOAD,2024-06-23 16:12:57,14.98332437,0.0003059,70.0005,277.8639,266.8653,93.2156,0.00010992,1.219e-05,0.0,0 STARLINK-5970,1 56450U 23064C   24175.67566353  .00001219  00000-0  10992-3 0  9992,2 56450  70.0005 277.8639 0003059 266.8653  93.2156 14.98332437 61770,6950.185,96.107,574.176,569.924,0.0
56450.0,STARLINK-5970,PAYLOAD,2024-06-24 13:02:41,14.98339492,0.0003299,69.9999,275.6746,274.505,85.5732,0.00022956,2.648e-05,0.0,0 STARLINK-5970,1 56450U 23064C   24176.54353438  .00002648  00000-0  22956-3 0  9997,2 56450  69.9999 275.6746 0003299 274.5050  85.5732 14.98339492 62264,6950.164,96.106,574.321,569.736,0.0
56450.0,STARLINK-5970,PAYLOAD,2024-06-24 14:38:49,14.98340356,0.0003094,70.0002,275.5067,272.8964,87.1841,0.00024824,2.871e-05,0.0,0 STARLINK-5970,1 56450U 23064C   24176.61029288  .00002871  00000-0  24824-3 0  9992,2 56450  70.0002 275.5067 0003094 272.8964  87.1841 14.98340356 61916,6950.161,96.106,574.176,569.875,0.0
56450.0,STARLINK-5970,PAYLOAD,2024-06-24 16:14:57,14.98341676,0.0003012,70.0005,275.339,269.6329,90.4485,0.00026455,3.066e-05,0.0,0 STARLINK-5970,1 56450U 23064C   24176.67705096  .00003066  00000-0  26455-3 0  9995,2 56450  70.0005 275.3390 0003012 269.6329  90.4485 14.98341676 61923,6950.157,96.106,574.115,569.928,0.0
56450.0,STARLINK-5970,PAYLOAD,2024-06-25 13:04:42,14.98332708,0.0002561,70.0024,273.1531,240.8867,119.2036,-3.292e-05,-4.86e-06,0.0,0 STARLINK-5970,1 56450U 23064C   24177.54493927 -.00000486  00000-0 -32920-4 0  9999,2 56450  70.0024 273.1531 0002561 240.8867 119.2036 14.98332708 62416,6950.185,96.107,573.829,570.27,0.0
56450.0,STARLINK-5970,PAYLOAD,2024-06-25 14:40:51,14.98329678,0.0002552,70.002,272.9842,250.5928,109.4956,-7.3927e-05,-9.75e-06,0.0,0 STARLINK-5970,1 56450U 23064C   24177.61170261 -.00000975  00000-0 -73927-4 0  9995,2 56450  70.0020 272.9842 0002552 250.5928 109.4956 14.98329678 62065,6950.194,96.107,573.833,570.285,0.0
56450.0,STARLINK-5970,PAYLOAD,2024-06-25 16:16:59,14.98329681,0.0002572,70.0019,272.8157,253.1902,106.8975,-7.7385e-05,-1.016e-05,0.0,0 STARLINK-5970,1 56450U 23064C   24177.67846262 -.00001016  00000-0 -77385-4 0  9991,2 56450  70.0019 272.8157 0002572 253.1902 106.8975 14.98329681 62071,6950.194,96.107,573.846,570.271,0.0
56450.0,STARLINK-5970,PAYLOAD,2024-06-26 11:30:34,14.98340851,0.0003199,70.0005,270.7942,266.9827,93.0966,-1.3684e-05,-2.56e-06,0.0,0 STARLINK-5970,1 56450U 23064C   24178.47956668 -.00000256  00000-0 -13684-4 0  9999,2 56450  70.0005 270.7942 0003199 266.9827  93.0966 14.98340851 62551,6950.159,96.106,574.248,569.801,0.0
56450.0,STARLINK-5970,PAYLOAD,2024-06-27 13:08:43,14.98332276,0.0003483,69.9996,268.0998,269.7682,90.3078,8.7791e-06,1.2e-07,0.0,0 STARLINK-5970,1 56450U 23064C   24179.54772663  .00000012  00000-0  87791-5 0  9998,2 56450  69.9996 268.0998 0003483 269.7682  90.3078 14.98332276 62718,6950.186,96.107,574.472,569.63,0.0
56450.0,STARLINK-5970,PAYLOAD,2024-06-27 16:20:59,14.98333304,0.0003488,69.9997,267.7633,269.9795,90.0964,1.8437e-05,1.27e-06,0.0,0 STARLINK-5970,1 56450U 23064C   24179.68124544  .00000127  00000-0  18437-4 0  9999,2 56450  69.9997 267.7633 0003488 269.9795  90.0964 14.98333304 62379,6950.183,96.107,574.472,569.623,0.0
56450.0,STARLINK-5970,PAYLOAD,2024-06-28 13:10:44,14.98334392,0.0003152,70.0003,265.5767,256.8581,103.2226,-9.5178e-06,-2.07e-06,0.0,0 STARLINK-5970,1 56450U 23064C   24180.54912440 -.00000207  00000-0 -95178-5 0  9995,2 56450  70.0003 265.5767 0003152 256.8581 103.2226 14.98334392 62860,6950.179,96.107,574.235,569.854,0.0
56450.0,STARLINK-5970,PAYLOAD,2024-06-28 14:46:52,14.98336,0.0003138,70.0004,265.4088,255.8446,104.2364,8.4431e-06,8e-08,0.0,0 STARLINK-5970,1 56450U 23064C   24180.61588262  .00000008  00000-0  84431-5 0  9991,2 56450  70.0004 265.4088 0003138 255.8446 104.2364 14.98336000 62513,6950.174,96.107,574.22,569.858,0.0
56450.0,STARLINK-5970,PAYLOAD,2024-06-29 13:12:45,14.98323762,0.0003002,70.0003,263.0515,266.1904,93.8912,-9.6657e-06,-2.08e-06,0.0,0 STARLINK-5970,1 56450U 23064C   24181.55053129 -.00000208  00000-0 -96657-5 0  9991,2 56450  70.0003 263.0515 0003002 266.1904  93.8912 14.98323762 63014,6950.212,96.107,574.164,569.991,0.0
56450.0,STARLINK-5970,PAYLOAD,2024-06-29 14:48:53,14.9832481,0.0003018,70.0003,262.8831,266.6335,93.4479,-9.1153e-06,-2.02e-06,0.0,0 STARLINK-5970,1 56450U 23064C   24181.61729152 -.00000202  00000-0 -91153-5 0  9994,2 56450  70.0003 262.8831 0003018 266.6335  93.4479 14.98324810 62661,6950.209,96.107,574.172,569.976,0.0
56450.0,STARLINK-5970,PAYLOAD,2024-06-30 14:50:55,14.98325286,0.0003081,69.9996,260.3566,256.2954,103.7862,-2.7538e-05,-4.22e-06,0.0,0 STARLINK-5970,1 56450U 23064C   24182.61869434 -.00000422  00000-0 -27538-4 0  9992,2 56450  69.9996 260.3566 0003081 256.2954 103.7862 14.98325286 62815,6950.207,96.107,574.214,569.931,0.0
